NORAD_CAT_ID,OBJECT_NAME,OBJECT_TYPE,EPOCH,MEAN_MOTION,ECCENTRICITY,INCLINATION,RA_OF_ASC_NODE,ARG_OF_PERICENTER,MEAN_ANOMALY,BSTAR,MEAN_MOTION_DOT,MEAN_MOTION_DDOT,TLE_LINE0,TLE_LINE1,TLE_LINE2,SEMIMAJOR_AXIS,PERIOD,APOGEE,PERIGEE,DECAYED
53722.0,STARLINK-4700,PAYLOAD,2022-12-26 23:52:17,15.08844749,0.0001142,53.2191,100.3557,94.5003,265.612,5.6731e-05,6.15e-06,0.0,0 STARLINK-4700,1 53722U 22107Y   22360.99464705  .00000615  00000-0  56731-4 0  9996,2 53722  53.2191 100.3557 0001142  94.5003 265.6120 15.08844749 17529,6917.866,95.437,540.521,538.941,0.0
53722.0,STARLINK-4700,PAYLOAD,2022-12-27 07:49:13,15.088389800000002,9.54e-05,53.2189,98.8699,103.3637,256.7461,0.00019947,2.888e-05,0.0,0 STARLINK-4700,1 53722U 22107Y   22361.32584765  .00002888  00000-0  19947-3 0  9994,2 53722  53.2189  98.8699 0000954 103.3637 256.7461 15.08838980 18021,6917.884,95.438,540.408,539.089,0.0
53722.0,STARLINK-4700,PAYLOAD,2022-12-28 06:04:37,15.08838202,0.0001273,53.2197,94.7074,96.0553,264.0584,9.1589e-05,1.17e-05,0.0,0 STARLINK-4700,1 53722U 22107Y   22362.25321216  .00001170  00000-0  91589-4 0  9993,2 53722  53.2197  94.7074 0001273  96.0553 264.0584 15.08838202 17712,6917.886,95.438,540.632,538.87,0.0
53722.0,STARLINK-4700,PAYLOAD,2022-12-29 05:55:24,15.08834855,0.0001274999999999,53.2182,90.2462,89.2223,270.8915,3.6095e-06,-2.3e-06,0.0,0 STARLINK-4700,1 53722U 22107Y   22363.24681555 -.00000230  00000-0  36095-5 0  9997,2 53722  53.2182  90.2462 0001275  89.2223 270.8915 15.08834855 18318,6917.896,95.438,540.643,538.879,0.0
53722.0,STARLINK-4700,PAYLOAD,2022-12-29 15:27:43,15.08840602,0.0001094,53.2179,88.4628,84.6365,275.4752,4.2533e-05,3.89e-06,0.0,0 STARLINK-4700,1 53722U 22107Y   22363.64425337  .00000389  00000-0  42533-4 0  9992,2 53722  53.2179  88.4628 0001094  84.6365 275.4752 15.08840602 17925,6917.879,95.438,540.5,538.987,0.0
53722.0,STARLINK-4700,PAYLOAD,2022-12-30 12:07:43,15.08853508,0.0001071,53.2173,84.5969,83.709,276.4024,0.00038997,5.926e-05,0.0,0 STARLINK-4700,1 53722U 22107Y   22364.50536878  .00005926  00000-0  38997-3 0  9991,2 53722  53.2173  84.5969 0001071  83.7090 276.4024 15.08853508 18501,6917.839,95.437,540.445,538.9630000000002,0.0
53722.0,STARLINK-4700,PAYLOAD,2022-12-30 16:53:52,15.08866825,0.0001193999999999,53.2177,83.7051,84.2605,275.8523,0.00068118,0.00010578,0.0,0 STARLINK-4700,1 53722U 22107Y   22364.70408491  .00010578  00000-0  68118-3 0  9999,2 53722  53.2177  83.7051 0001194  84.2605 275.8523 15.08866825 18088,6917.7980000000025,95.436,540.489,538.837,0.0
53722.0,STARLINK-4700,PAYLOAD,2022-12-31 05:36:58,15.08847499,0.0001066999999999,53.2176,81.3261,86.9356,273.1758,0.00020201,2.929e-05,0.0,0 STARLINK-4700,1 53722U 22107Y   22365.23401075  .00002929  00000-0  20201-3 0  9991,2 53722  53.2176  81.3261 0001067  86.9356 273.1758 15.08847499 18161,6917.857,95.437,540.461,538.984,0.0
53722.0,STARLINK-4700,PAYLOAD,2022-12-31 13:33:53,15.08854767,0.0001071,53.2178,79.8388,91.3667,268.7448,0.00048139,7.385e-05,0.0,0 STARLINK-4700,1 53722U 22107Y   22365.56520652  .00007385  00000-0  48139-3 0  9991,2 53722  53.2178  79.8388 0001071  91.3667 268.7448 15.08854767 18662,6917.835,95.437,540.441,538.9590000000002,0.0
53722.0,STARLINK-4700,PAYLOAD,2022-12-31 15:09:16,15.08856965,0.0001071,53.2181,79.5415,91.0034,269.1081,0.00060746,9.397e-05,0.0,0 STARLINK-4700,1 53722U 22107Y   22365.63144606  .00009397  00000-0  60746-3 0  9993,2 53722  53.2181  79.5415 0001071  91.0034 269.1081 15.08856965 18670,6917.829000000002,95.436,540.434,538.953,0.0
53722.0,STARLINK-4700,PAYLOAD,2023-01-01 05:27:46,15.08827527,4.57e-05,53.2182,76.8658,7.0202,353.0797,0.0006161,9.528e-05,0.0,0 STARLINK-4700,1 53722U 22107Y   23001.22761654  .00009528  00000-0  61610-3 0  9991,2 53722  53.2182  76.8658 0000457   7.0202 353.0797 15.08827527 18311,6917.919,95.438,540.1,539.467,0.0
53722.0,STARLINK-4700,PAYLOAD,2023-01-01 13:24:41,15.08832781,9.33e-05,53.2187,75.3797,108.1406,251.9688,0.00090153,0.00014086,0.0,0 STARLINK-4700,1 53722U 22107Y   23001.55881891  .00014086  00000-0  90153-3 0  9992,2 53722  53.2187  75.3797 0000933 108.1406 251.9688 15.08832781 18810,6917.901999999999,95.438,540.413,539.122,0.0
53722.0,STARLINK-4700,PAYLOAD,2023-01-01 21:21:37,15.08834817,9.42e-05,53.2186,73.8925,106.338,253.7715,0.00058925,9.101e-05,0.0,0 STARLINK-4700,1 53722U 22107Y   23001.89002079  .00009101  00000-0  58925-3 0  9995,2 53722  53.2186  73.8925 0000942 106.3380 253.7715 15.08834817 18864,6917.896,95.438,540.413,539.11,0.0
53722.0,STARLINK-4700,PAYLOAD,2023-01-02 13:15:29,15.08846513,9.8e-05,53.2189,70.9195,107.7128,252.3972,0.00063595,9.85e-05,0.0,0 STARLINK-4700,1 53722U 22107Y   23002.55242092  .00009850  00000-0  63595-3 0  9990,2 53722  53.2189  70.9195 0000980 107.7128 252.3972 15.08846513 18519,6917.86,95.437,540.403,539.048,0.0
53722.0,STARLINK-4700,PAYLOAD,2023-01-02 21:12:24,15.08847814,9.21e-05,53.2186,69.4328,105.213,254.8964,0.00047727,7.318e-05,0.0,0 STARLINK-4700,1 53722U 22107Y   23002.88361992  .00007318  00000-0  47727-3 0  9993,2 53722  53.2186  69.4328 0000921 105.2130 254.8964 15.08847814 19017,6917.857,95.437,540.359,539.0840000000002,0.0
53722.0,STARLINK-4700,PAYLOAD,2023-01-03 05:09:20,15.08851755,9.27e-05,53.2185,67.9462,104.684,255.4255,0.00044657,6.829e-05,0.0,0 STARLINK-4700,1 53722U 22107Y   23003.21481789  .00006829  00000-0  44657-3 0  9993,2 53722  53.2185  67.9462 0000927 104.6840 255.4255 15.08851755 18619,6917.844,95.437,540.351,539.068,0.0
53722.0,STARLINK-4700,PAYLOAD,2023-01-04 09:46:16,15.08844835,0.0001666999999999,53.2191,62.5943,51.5176,308.5966,0.0001176,1.584e-05,0.0,0 STARLINK-4700,1 53722U 22107Y   23004.40713883  .00001584  00000-0  11760-3 0  9990,2 53722  53.2191  62.5943 0001667  51.5176 308.5966 15.08844835 19245,6917.866,95.437,540.884,538.577,0.0
53722.0,STARLINK-4700,PAYLOAD,2023-01-04 11:21:39,15.08850507,0.0001240999999999,53.2193,62.2973,73.2422,286.8707,0.00018903,2.723e-05,0.0,0 STARLINK-4700,1 53722U 22107Y   23004.47337561  .00002723  00000-0  18903-3 0  9994,2 53722  53.2193  62.2973 0001241  73.2422 286.8707 15.08850507 18805,6917.848000000001,95.437,540.572,538.855,0.0
53722.0,STARLINK-4700,PAYLOAD,2023-01-05 09:37:03,15.08851014,0.0001215,53.2191,58.1353,89.1973,270.9158,0.00019448,2.81e-05,0.0,0 STARLINK-4700,1 53722U 22107Y   23005.40073148  .00002810  00000-0  19448-3 0  9998,2 53722  53.2191  58.1353 0001215  89.1973 270.9158 15.08851014 19390,6917.847,95.437,540.552,538.871,0.0
53722.0,STARLINK-4700,PAYLOAD,2023-01-06 06:17:04,15.08831102,0.0001375999999999,53.2181,54.269,83.3078,276.8071,-9.4292e-05,-1.788e-05,0.0,0 STARLINK-4700,1 53722U 22107Y   23006.26186155 -.00001788  00000-0 -94292-4 0  9992,2 53722  53.2181  54.2690 0001376  83.3078 276.8071 15.08831102 19070,6917.908,95.438,540.724,538.821,0.0
53722.0,STARLINK-4700,PAYLOAD,2023-01-06 14:14:00,15.08842064,0.0001281999999999,53.2187,52.7812,86.5521,273.5618,0.00010707,1.417e-05,0.0,0 STARLINK-4700,1 53722U 22107Y   23006.59305869  .00001417  00000-0  10707-3 0  9998,2 53722  53.2187  52.7812 0001282  86.5521 273.5618 15.08842064 19125,6917.874,95.437,540.626,538.852,0.0
53722.0,STARLINK-4700,PAYLOAD,2023-01-07 04:32:29,15.08828351,0.0001029,53.219,50.1054,83.2724,276.8385,-4.017e-05,-9.27e-06,0.0,0 STARLINK-4700,1 53722U 22107Y   23007.18922782 -.00000927  00000-0 -40170-4 0  9998,2 53722  53.2190  50.1054 0001029  83.2724 276.8385 15.08828351 19666,6917.916,95.438,540.493,539.069,0.0
53722.0,STARLINK-4700,PAYLOAD,2023-01-07 09:18:38,15.08834447,0.0001286,53.2187,49.2135,89.5793,270.5346,0.00011853,1.599e-05,0.0,0 STARLINK-4700,1 53722U 22107Y   23007.38794804  .00001599  00000-0  11853-3 0  9991,2 53722  53.2187  49.2135 0001286  89.5793 270.5346 15.08834447 19246,6917.897,95.438,540.6519999999998,538.873,0.0
53722.0,STARLINK-4700,PAYLOAD,2023-01-07 14:04:47,15.08844645,0.0001106,53.2185,48.3211,82.0666,278.0452,0.0003722,5.641e-05,0.0,0 STARLINK-4700,1 53722U 22107Y   23007.58666553  .00005641  00000-0  37220-3 0  9990,2 53722  53.2185  48.3211 0001106  82.0666 278.0452 15.08844645 19272,6917.866,95.437,540.496,538.966,0.0
53722.0,STARLINK-4700,PAYLOAD,2023-01-08 04:23:16,15.0884486,0.0001262999999999,53.2186,45.6448,82.775,277.3385,0.00047427,7.269e-05,0.0,0 STARLINK-4700,1 53722U 22107Y   23008.18282977  .00007269  00000-0  47427-3 0  9999,2 53722  53.2186  45.6448 0001263  82.7750 277.3385 15.08844860 19366,6917.866,95.437,540.604,538.857,0.0
53722.0,STARLINK-4700,PAYLOAD,2023-01-08 12:20:11,15.08863188,0.0001312,53.2187,44.1581,85.0258,275.0884,0.00093897,0.00014697,0.0,0 STARLINK-4700,1 53722U 22107Y   23008.51402482  .00014697  00000-0  93897-3 0  9996,2 53722  53.2187  44.1581 0001312  85.0258 275.0884 15.08863188 19861,6917.81,95.436,540.582,538.7669999999998,0.0
53722.0,STARLINK-4700,PAYLOAD,2023-01-08 18:41:44,15.08843789,0.0001735,53.2186,42.9677,75.8731,284.2454,0.00011238,1.501e-05,0.0,0 STARLINK-4700,1 53722U 22107Y   23008.77898715  .00001501  00000-0  11238-3 0  9991,2 53722  53.2186  42.9677 0001735  75.8731 284.2454 15.08843789 19909,6917.8690000000015,95.437,540.934,538.534,0.0
53722.0,STARLINK-4700,PAYLOAD,2023-01-09 02:38:40,15.08848887,0.0001259,53.2185,41.4818,93.5036,266.61,0.00025849,3.829e-05,0.0,0 STARLINK-4700,1 53722U 22107Y   23009.11018561  .00003829  00000-0  25849-3 0  9991,2 53722  53.2185  41.4818 0001259  93.5036 266.6100 15.08848887 19507,6917.853,95.437,540.589,538.847,0.0
53722.0,STARLINK-4700,PAYLOAD,2023-01-09 10:35:35,15.08854747,0.0001366,53.2186,39.995,89.4526,270.6622,0.00038352,5.823e-05,0.0,0 STARLINK-4700,1 53722U 22107Y   23009.44138248  .00005823  00000-0  38352-3 0  9991,2 53722  53.2186  39.9950 0001366  89.4526 270.6622 15.08854747 20007,6917.835,95.437,540.645,538.755,0.0
